{
    "links": {
        "self": "http://www.neowsapp.com/rest/v1/neo/3717066?api_key=iIulBulltgU6a56xZRHN4H3l9WmuAYTsLGpBGhQ2"
    },
    "id": "3717066",
    "neo_reference_id": "3717066",
    "name": "(2015 HG11)",
    "designation": "2015 HG11",
    "nasa_jpl_url": "http://ssd.jpl.nasa.gov/sbdb.cgi?sstr=3717066",
    "absolute_magnitude_h": 25.2,
    "estimated_diameter": {
        "kilometers": {
            "estimated_diameter_min": 0.0242412481,
            "estimated_diameter_max": 0.0542050786
        },
        "meters": {
            "estimated_diameter_min": 24.2412481101,
            "estimated_diameter_max": 54.2050786336
        },
        "miles": {
            "estimated_diameter_min": 0.0150628086,
            "estimated_diameter_max": 0.0336814639
        },
        "feet": {
            "estimated_diameter_min": 79.5316564495,
            "estimated_diameter_max": 177.8381901842
        }
    },
    "is_potentially_hazardous_asteroid": false,
    "close_approach_data": [
        {
            "close_approach_date": "2011-06-27",
            "close_approach_date_full": "2011-Jun-27 10:58",
            "epoch_date_close_approach": 1309172280000,
            "relative_velocity": {
                "kilometers_per_second": "9.8050836998",
                "kilometers_per_hour": "35298.3013193296",
                "miles_per_hour": "21932.9917281134"
            },
            "miss_distance": {
                "astronomical": "0.0908630406",
                "lunar": "35.3457227934",
                "kilometers": "13592917.335483522",
                "miles": "8446247.1745837236"
            },
            "orbiting_body": "Mars"
        },
        {
            "close_approach_date": "2015-04-06",
            "close_approach_date_full": "2015-Apr-06 19:36",
            "epoch_date_close_approach": 1428348960000,
            "relative_velocity": {
                "kilometers_per_second": "6.7083226369",
                "kilometers_per_hour": "24149.9614929747",
                "miles_per_hour": "15005.8469065653"
            },
            "miss_distance": {
                "astronomical": "0.0783940791",
                "lunar": "30.4952967699",
                "kilometers": "11727587.253971517",
                "miles": "7287184.8083682546"
            },
            "orbiting_body": "Earth"
        },
        {
            "close_approach_date": "2112-04-04",
            "close_approach_date_full": "2112-Apr-04 07:56",
            "epoch_date_close_approach": 4489199760000,
            "relative_velocity": {
                "kilometers_per_second": "5.8865013153",
                "kilometers_per_hour": "21191.4047350239",
                "miles_per_hour": "13167.5147921597"
            },
            "miss_distance": {
                "astronomical": "0.0950091002",
                "lunar": "36.9585399778",
                "kilometers": "14213159.020536574",
                "miles": "8831647.4864257612"
            },
            "orbiting_body": "Earth"
        }
    ],
    "orbital_data": {
        "orbit_id": "4",
        "orbit_determination_date": "2017-04-06 08:34:08",
        "first_observation_date": "2015-04-21",
        "last_observation_date": "2015-04-28",
        "data_arc_in_days": 7,
        "observations_used": 16,
        "orbit_uncertainty": "8",
        "minimum_orbit_intersection": ".0776299",
        "jupiter_tisserand_invariant": "4.719",
        "epoch_osculation": "2457135.5",
        "eccentricity": ".2605595867954338",
        "semi_major_axis": "1.392777781663356",
        "inclination": "10.13584673288356",
        "ascending_node_longitude": "28.88845422191511",
        "orbital_period": "600.3730263613294",
        "perihelion_distance": "1.029876178375291",
        "perihelion_argument": "133.3901993264897",
        "aphelion_distance": "1.755679384951421",
        "perihelion_time": "2457087.045769046779",
        "mean_anomaly": "29.05447509672316",
        "mean_motion": ".5996272054090204",
        "equinox": "J2000",
        "orbit_class": {
            "orbit_class_type": "AMO",
            "orbit_class_description": "Near-Earth asteroid orbits similar to that of 1221 Amor",
            "orbit_class_range": "1.017 AU < q (perihelion) < 1.3 AU"
        }
    },
    "is_sentry_object": false
}